ISS (ZARYA)             
CXBN-2                  
1 42704U 98067LM  17197.55965831  .00010762  00000-0  15791-3 0  9996
2 42704  51.6394 251.2755 0003179  25.3859 334.7288 15.56094907  9433
ICECUBE                 
1 42705U 98067LN  17197.55724181  .00012265  00000-0  17734-3 0  9997
2 42705  51.6398 251.2616 0003164  28.8042 331.3124 15.56344245  9491
PHOENIX                 
1 42706U 98067LP  17197.55350301  .00010839  00000-0  15791-3 0  9993
2 42706  51.6395 251.2363 0002509  43.0226 317.0962 15.56282676  9426
X-CUBESAT               
1 42707U 98067LQ  17197.61851562  .00011469  00000-0  16681-3 0  9995
2 42707  51.6392 250.9188 0002558  41.9138 318.2049 15.56260027  9423
QBEE50-LTU-OC           
1 42708U 98067LR  17197.36298999  .00009179  00000-0  13517-3 0  9997
2 42708  51.6393 252.2122 0002615  41.9064 318.2127 15.56207598  9342
ALTAIR PATHFINDER       
1 42711U 98067LS  17197.44723280  .00006607  00000-0  10181-3 0  9993
2 42711  51.6392 252.0224 0005199  14.4746 345.6393 15.55504802  9063
SHARC                   
1 42712U 98067LT  17197.37961786  .00004549  00000-0  72185-4 0  9997
2 42712  51.6397 252.3234 0003151  21.0394 339.0726 15.55547321  9297
ZA-AEROSAT              
1 42713U 98067LU  17197.62889573  .00008835  00000-0  13185-3 0  9995
2 42713  51.6394 250.9875 0003131  14.4312 345.6768 15.55896659  9092
LINK                    
1 42714U 98067LV  17197.37065011  .00011193  00000-0  16426-3 0  9993
2 42714  51.6391 252.2620 0003604  15.4593 344.6508 15.56042271  9163
CSUNSAT 1               
1 42715U 98067LW  17197.37676812  .00008010  00000-0  12063-3 0  9998
2 42715  51.6390 252.3020 0005407   5.0979 355.0067 15.55796256  9056
UPSAT                   
1 42716U 98067LX  17197.61954945  .00012595  00000-0  18200-3 0  9994
2 42716  51.6392 250.9252 0005448  68.0394 292.1176 15.56327491  9228
SPACECUBE               
1 42717U 98067LY  17197.62461045  .00010987  00000-0  16102-3 0  9992
2 42717  51.6393 250.9590 0005413  69.3206 290.8365 15.56097894  8464
HOOPOE                  
1 42718U 98067LZ  17197.36567190  .00010462  00000-0  15306-3 0  9995
2 42718  51.6395 252.2302 0005456  66.3087 293.8477 15.56205302  8422
CHALLENGER              
1 42721U 98067MA  17197.63115721  .00015155  00000-0  21814-3 0  9993
2 42721  51.6388 251.0005 0008823  51.4149 308.7632 15.56226240  8164
NJUST-1                 
1 42722U 98067MB  17197.38477222  .00007352  00000-0  11195-3 0  9994
2 42722  51.6393 252.3555 0008501  53.9497 306.2281 15.55623074  8125
UNSW-ECO                
1 42723U 98067MC  17197.50931670  .00010544  00000-0  15596-3 0  9997
2 42723  51.6394 251.6879 0008565  52.3199 307.8568 15.55878060  8122
DUTHSAT                 
1 42724U 98067MD  17197.63500558  .00014602  00000-0  21155-3 0  9996
2 42724  51.6389 251.0267 0007769  53.6020 306.5687 15.56092629  8065
LILACSAT-1              
1 42725U 98067ME  17197.51537231  .00009089  00000-0  13692-3 0  9992
2 42725  51.6394 251.7283 0007523  56.2854 303.8854 15.55583366  8045
NSIGHT-1                
1 42726U 98067MF  17197.58525802  .00005358  00000-0  84718-4 0  9994
2 42726  51.6398 251.4454 0007372  59.5521 300.6197 15.55228283  8067
SNUSAT-1                
1 42727U 98067MG  17197.45076587  .00008019  00000-0  12148-3 0  9996
2 42727  51.6389 252.0442 0009032  20.7282 339.4074 15.55613222  8000
QBITO                   
1 42728U 98067MH  17197.51026804  .00009793  00000-0  14575-3 0  9997
2 42728  51.6398 251.6957 0004671  58.9687 301.1763 15.55825668  7855
AALTO-2                 
1 42729U 98067MJ  17197.51012333  .00009803  00000-0  14588-3 0  9996
2 42729  51.6394 251.6942 0004667  59.1649 300.9801 15.55826297  7862
SUSAT                   
1 42730U 98067MK  17197.44695502  .00008238  00000-0  12390-3 0  9995
2 42730  51.6392 252.0218 0004732  57.7809 302.3641 15.55788763  7849
I-INSPIRE II            
1 42731U 98067ML  17197.50841448  .00010015  00000-0  14831-3 0  9993
2 42731  51.6384 251.6784 0008535   9.4870 350.6281 15.55911948  7907
POLYITAN-2-SAU          
1 42732U 98067MM  17197.50913694  .00009739  00000-0  14473-3 0  9990
2 42732  51.6387 251.6835 0008434   9.0728 351.0414 15.55852950  7904
SNUSAT-1B               
1 42733U 98067MN  17197.51175012  .00009175  00000-0  13731-3 0  9996
2 42733  51.6389 251.7012 0008297  10.5209 349.5955 15.55746830  7904
EXALTA-1                
1 42734U 98067MP  17197.50851106  .00010625  00000-0  15678-3 0  9995
2 42734  51.6389 251.6802 0010262  30.6932 329.4658 15.55920165  7858
AOXIANG-1               
1 42735U 98067MQ  17197.44828458  .00007580  00000-0  11499-3 0  9996
2 42735  51.6392 252.0291 0009189  51.2070 308.9740 15.55666477  9262
BEEAGLESAT              
1 42736U 98067MR  17197.51278878  .00009322  00000-0  13962-3 0  9993
2 42736  51.6391 251.7101 0009128  50.2354 309.9440 15.55694566  7968
ATLANTIS                
1 42737U 98067MS  17197.62475086  .00020731  00000-0  29050-3 0  9998
2 42737  51.6387 250.9573 0009698  44.4291 315.7477 15.56692903  7874
DRAGON CRS-11           
1 42744U 17030A   17183.54984348  .00001205  00000-0  25484-4 0  9992
2 42744  51.6430 321.7524 0004913 352.0631 101.5772 15.54107724  4466
PROGRESS-MS 06          
1 42756U 17033A   17197.56681787  .00000398  00000-0  13286-4 0  9995
2 42756  51.6415 251.8771 0005799  42.0088  47.3447 15.54164590  5016
ISS DEB                 
1 42813U 98067MT  17197.54451704  .00019666  00000-0  29353-3 0  9996
2 42813  51.6424 251.9160 0005715  31.2551 328.8779 15.55042397  3267
=======
1 25544U 98067A   17157.94655197  .00002630  00000-0  47191-4 0  9994
2 25544  51.6418  89.3693 0004703 241.3496 157.2990 15.53992000 60168
TIANGONG 1              
1 37820U 11053A   17157.70967876  .00020914  00000-0  11813-3 0  9994
2 37820  42.7593 264.1306 0019426 359.5204 148.5490 15.78435713326314
AGGIESAT 4              
1 41313U 98067HP  17157.16086447  .00018711  00000-0  13577-3 0  9993
2 41313  51.6375  59.3234 0004723 101.9367 258.2161 15.73442509 77199
BEVO 2                  
1 41314U 98067HQ  17157.88632967  .00703414  31345-3  45291-3 0  9995
2 41314  51.6177  25.8163 0007485 251.9715 108.0487 16.16778687 77482
NODES 2                 
1 41477U 98067HX  17157.90383726  .00052219  00000-0  26238-3 0  9995
2 41477  51.6294  56.6595 0003371  94.5932 265.5455 15.81168393 60445
NODES 1                 
1 41478U 98067HY  17157.81578248  .00053127  00000-0  27329-3 0  9992
2 41478  51.6327  57.5946 0003116  94.0560 266.0798 15.80650524 60427
FLOCK 2E'-1             
1 41479U 98067HZ  17157.82937824  .00017516  00000-0  15561-3 0  9990
2 41479  51.6361  69.0720 0001235 132.9379 227.1721 15.68631858 60232
FLOCK 2E'-3             
1 41480U 98067JA  17157.85350922  .00015886  00000-0  14210-3 0  9991
2 41480  51.6360  68.5033 0000732  66.0320 294.0753 15.68548906 60237
FLOCK 2E'-2             
1 41481U 98067JB  17157.93598542  .00014396  00000-0  12524-3 0  9994
2 41481  51.6345  66.7643 0001590 141.5719 218.5391 15.69326443 60254
FLOCK 2E'-4             
1 41482U 98067JC  17157.79065223  .00022341  00000-0  17773-3 0  9994
2 41482  51.6345  66.5289 0001496  79.7829 280.3337 15.71128503 60244
FLOCK 2E-1              
1 41483U 98067ID  17157.29569450  .00013969  00000-0  13019-3 0  9996
2 41483  51.6375  72.3135 0002141  32.0954 328.0172 15.67656718 59998
FLOCK 2E-2              
1 41484U 98067JE  17157.23012824  .00019455  00000-0  16890-3 0  9995
2 41484  51.6385  71.1428 0002213  46.7114 313.4067 15.69112127 60000
FLOCK 2E-3              
1 41486U 98067JG  17157.94249624  .00012046  00000-0  11618-3 0  9997
2 41486  51.6371  70.6259 0002649  64.7641 295.3629 15.66964173 60095
FLOCK 2E-4              
1 41487U 98067JH  17157.79997702  .00013956  00000-0  12913-3 0  9998
2 41487  51.6373  69.6496 0003643  57.6827 302.4521 15.67836732 60092
FLOCK 2E-6              
1 41563U 98067JM  17157.84789515  .00010970  00000-0  10867-3 0  9999
2 41563  51.6366  71.4681 0001397 138.8569 221.2533 15.66405325 58148
FLOCK 2E-5              
1 41564U 98067JN  17157.85787038  .00011762  00000-0  11662-3 0  9993
2 41564  51.6367  71.5423 0001207 135.2529 224.8564 15.66295284 58135
FLOCK 2E-7              
1 41565U 98067JP  17157.81556449  .00017448  00000-0  15131-3 0  9992
2 41565  51.6360  68.2287 0004609  80.6839 279.4679 15.69221451 58070
FLOCK 2E-8              
1 41566U 98067JQ  17157.91086070  .00121698  16725-4  36063-3 0  9997
2 41566  51.6286  49.8665 0004713 142.6928 217.4407 15.92335896 58310
FLOCK 2E'-5             
1 41567U 98067JR  17157.78191446  .00011191  00000-0  11495-3 0  9990
2 41567  51.6378  73.2981 0004907  93.3825 266.7732 15.65457253 57979
FLOCK 2E'-6             
1 41568U 98067JS  17157.77145550  .00014626  00000-0  13869-3 0  9998
2 41568  51.6364  70.9405 0004513  92.1048 268.0465 15.67174872 58038
FLOCK 2E'-8             
1 41569U 98067JT  17157.91417765  .00016441  00000-0  14148-3 0  9993
2 41569  51.6361  67.3905 0002434  64.2282 295.8966 15.69467197 57974
FLOCK 2E'-7             
1 41570U 98067JU  17157.81477341  .00022161  00000-0  16934-3 0  9991
2 41570  51.6364  65.2376 0002923  51.8320 308.2941 15.72094779 58010
FLOCK 2E-9              
1 41571U 98067JV  17157.85234832  .00017668  00000-0  14924-3 0  9995
2 41571  51.6366  66.9928 0004309  82.3948 277.7538 15.69854026 57958
FLOCK 2E-10             
1 41572U 98067JW  17157.81407914  .00017118  00000-0  15232-3 0  9998
2 41572  51.6364  68.9926 0004709  84.5269 275.6265 15.68604804 57928
FLOCK 2E-12             
1 41573U 98067JX  17157.94759666  .00016648  00000-0  14342-3 0  9995
2 41573  51.6359  67.6218 0004148  94.9148 265.2323 15.69425430 57951
FLOCK 2E-11             
1 41574U 98067JY  17157.94425949  .00017277  00000-0  14780-3 0  9995
2 41574  51.6347  66.8056 0005101  97.8056 262.3520 15.69560822 57963
FLOCK 2E'-9             
1 41575U 98067JZ  17157.81983142  .00020007  00000-0  16391-3 0  9991
2 41575  51.6346  66.7030 0004859 109.2903 250.8620 15.70492303 57943
